{
"type": "FeatureCollection",
"name": "out_mask",
"crs": { "type": "name", "properties": { "name": "urn:ogc:def:crs:EPSG::32632" } },
"features": [
{ "type": "Feature", "properties": { "id": 1 }, "geometry": { "type": "MultiPolygon", "coordinates": [ [ [ [ 346367.983028395334259, 5089918.641080514527857 ], [ 346472.040079827595036, 5090092.069499568082392 ], [ 346472.040079827595036, 5090092.069499568082392 ], [ 346472.040079827595036, 5090092.069499568082392 ], [ 347327.620280492992606, 5090230.812234812416136 ], [ 348125.391008140402846, 5090161.440867188386619 ], [ 348610.990581491030753, 5089779.898345271125436 ], [ 348321.943216401385143, 5089317.422561127692461 ], [ 347316.05838588939514, 5088762.45162015594542 ], [ 346911.392074764007702, 5088739.327830948866904 ], [ 346136.745136323675979, 5089456.165296371094882 ], [ 346367.983028395334259, 5089918.641080514527857 ] ] ] ] } }
]
}
